{
  "type": "FeatureCollection",
  "name": "Newton Division (LAPD DIV-13) - FususONE 3D Layer",
  "crs": {
    "type": "name",
    "properties": {
      "name": "urn:ogc:def:crs:OGC:1.3:CRS84"
    }
  },
  "metadata": {
    "divisionId": "DIV-13",
    "divisionName": "Newton Division",
    "bureau": "Central Bureau",
    "code": "NEWTON",
    "station": {
      "name": "Newton Community Police Station",
      "address": "3400 S Central Ave, Los Angeles, CA 90011",
      "phone": "(323) 846-6547",
      "lat": 34.0125,
      "lng": -118.2562
    },
    "center": [
      -118.255,
      34.015
    ],
    "fususOneCompatible": true,
    "optimization": "FususONE RTCC Compliant (Height Filtered + Low Polygon Vertex Bloat)"
  },
  "features": [
    {
      "type": "Feature",
      "properties": {
        "layerType": "BOUNDARY",
        "id": "NEWTON_BOUNDARY",
        "name": "Newton Division Boundary",
        "bureau": "Central Bureau",
        "division": "Newton Division",
        "strokeColor": "#00f3ff",
        "strokeWidth": 3,
        "fillColor": "#00f3ff",
        "fillOpacity": 0.08
      },
      "geometry": {
        "type": "Polygon",
        "coordinates": [
          [
            [
              -118.275,
              33.99
            ],
            [
              -118.275,
              34.035
            ],
            [
              -118.23,
              34.035
            ],
            [
              -118.23,
              33.99
            ],
            [
              -118.275,
              33.99
            ]
          ]
        ]
      }
    },
    {
      "type": "Feature",
      "properties": {
        "layerType": "STATION",
        "id": "NEWTON_STATION",
        "name": "Newton Community Police Station",
        "address": "3400 S Central Ave, Los Angeles, CA 90011",
        "phone": "(323) 846-6547",
        "division": "Newton Division",
        "bureau": "Central Bureau",
        "icon": "police-station",
        "markerColor": "#3b82f6"
      },
      "geometry": {
        "type": "Point",
        "coordinates": [
          -118.2562,
          34.0125
        ]
      }
    },
    {
      "type": "Feature",
      "properties": {
        "layerType": "BUILDING_3D",
        "id": "NEWTON_LM_1",
        "name": "LA Fashion District Commerce Center",
        "height": 35,
        "min_height": 0,
        "render_height": 35,
        "render_min_height": 0,
        "division": "Newton Division",
        "bureau": "Central Bureau",
        "extrusionColor": "#1e293b"
      },
      "geometry": {
        "type": "Polygon",
        "coordinates": [
          [
            [
              -118.25599999999999,
              34.031
            ],
            [
              -118.253,
              34.031
            ],
            [
              -118.253,
              34.034
            ],
            [
              -118.25599999999999,
              34.034
            ],
            [
              -118.25599999999999,
              34.031
            ]
          ]
        ]
      }
    },
    {
      "type": "Feature",
      "properties": {
        "layerType": "BUILDING_3D",
        "id": "NEWTON_LM_2",
        "name": "Washington Blvd Industrial Complex",
        "height": 28,
        "min_height": 0,
        "render_height": 28,
        "render_min_height": 0,
        "division": "Newton Division",
        "bureau": "Central Bureau",
        "extrusionColor": "#1e293b"
      },
      "geometry": {
        "type": "Polygon",
        "coordinates": [
          [
            [
              -118.244,
              34.017
            ],
            [
              -118.24100000000001,
              34.017
            ],
            [
              -118.24100000000001,
              34.02
            ],
            [
              -118.244,
              34.02
            ],
            [
              -118.244,
              34.017
            ]
          ]
        ]
      }
    }
  ]
}