{
  "type": "FeatureCollection",
  "name": "Hollywood Division (LAPD DIV-06) - FususONE 3D Layer",
  "crs": {
    "type": "name",
    "properties": {
      "name": "urn:ogc:def:crs:OGC:1.3:CRS84"
    }
  },
  "metadata": {
    "divisionId": "DIV-06",
    "divisionName": "Hollywood Division",
    "bureau": "West Bureau",
    "code": "HOLLYWOOD",
    "station": {
      "name": "Hollywood Community Police Station",
      "address": "1358 N Wilcox Ave, Los Angeles, CA 90028",
      "phone": "(213) 972-2971",
      "lat": 34.0955,
      "lng": -118.3308
    },
    "center": [
      -118.33,
      34.1
    ],
    "fususOneCompatible": true,
    "optimization": "FususONE RTCC Compliant (Height Filtered + Low Polygon Vertex Bloat)"
  },
  "features": [
    {
      "type": "Feature",
      "properties": {
        "layerType": "BOUNDARY",
        "id": "HOLLYWOOD_BOUNDARY",
        "name": "Hollywood Division Boundary",
        "bureau": "West Bureau",
        "division": "Hollywood Division",
        "strokeColor": "#00f3ff",
        "strokeWidth": 3,
        "fillColor": "#00f3ff",
        "fillOpacity": 0.08
      },
      "geometry": {
        "type": "Polygon",
        "coordinates": [
          [
            [
              -118.365,
              34.08
            ],
            [
              -118.365,
              34.135
            ],
            [
              -118.29,
              34.135
            ],
            [
              -118.29,
              34.08
            ],
            [
              -118.365,
              34.08
            ]
          ]
        ]
      }
    },
    {
      "type": "Feature",
      "properties": {
        "layerType": "STATION",
        "id": "HOLLYWOOD_STATION",
        "name": "Hollywood Community Police Station",
        "address": "1358 N Wilcox Ave, Los Angeles, CA 90028",
        "phone": "(213) 972-2971",
        "division": "Hollywood Division",
        "bureau": "West Bureau",
        "icon": "police-station",
        "markerColor": "#3b82f6"
      },
      "geometry": {
        "type": "Point",
        "coordinates": [
          -118.3308,
          34.0955
        ]
      }
    },
    {
      "type": "Feature",
      "properties": {
        "layerType": "BUILDING_3D",
        "id": "HOLLYWOOD_LM_1",
        "name": "Capitol Records Building",
        "height": 46,
        "min_height": 0,
        "render_height": 46,
        "render_min_height": 0,
        "division": "Hollywood Division",
        "bureau": "West Bureau",
        "extrusionColor": "#1e293b"
      },
      "geometry": {
        "type": "Polygon",
        "coordinates": [
          [
            [
              -118.3283,
              34.1001
            ],
            [
              -118.32530000000001,
              34.1001
            ],
            [
              -118.32530000000001,
              34.1031
            ],
            [
              -118.3283,
              34.1031
            ],
            [
              -118.3283,
              34.1001
            ]
          ]
        ]
      }
    },
    {
      "type": "Feature",
      "properties": {
        "layerType": "BUILDING_3D",
        "id": "HOLLYWOOD_LM_2",
        "name": "Hollywood & Highland / Ovation",
        "height": 50,
        "min_height": 0,
        "render_height": 50,
        "render_min_height": 0,
        "division": "Hollywood Division",
        "bureau": "West Bureau",
        "extrusionColor": "#1e293b"
      },
      "geometry": {
        "type": "Polygon",
        "coordinates": [
          [
            [
              -118.3416,
              34.1
            ],
            [
              -118.33860000000001,
              34.1
            ],
            [
              -118.33860000000001,
              34.103
            ],
            [
              -118.3416,
              34.103
            ],
            [
              -118.3416,
              34.1
            ]
          ]
        ]
      }
    },
    {
      "type": "Feature",
      "properties": {
        "layerType": "BUILDING_3D",
        "id": "HOLLYWOOD_LM_3",
        "name": "TCL Chinese Theatre",
        "height": 28,
        "min_height": 0,
        "render_height": 28,
        "render_min_height": 0,
        "division": "Hollywood Division",
        "bureau": "West Bureau",
        "extrusionColor": "#1e293b"
      },
      "geometry": {
        "type": "Polygon",
        "coordinates": [
          [
            [
              -118.3424,
              34.1005
            ],
            [
              -118.33940000000001,
              34.1005
            ],
            [
              -118.33940000000001,
              34.1035
            ],
            [
              -118.3424,
              34.1035
            ],
            [
              -118.3424,
              34.1005
            ]
          ]
        ]
      }
    },
    {
      "type": "Feature",
      "properties": {
        "layerType": "BUILDING_3D",
        "id": "HOLLYWOOD_LM_4",
        "name": "Griffith Observatory",
        "height": 38,
        "min_height": 0,
        "render_height": 38,
        "render_min_height": 0,
        "division": "Hollywood Division",
        "bureau": "West Bureau",
        "extrusionColor": "#1e293b"
      },
      "geometry": {
        "type": "Polygon",
        "coordinates": [
          [
            [
              -118.30189999999999,
              34.1169
            ],
            [
              -118.2989,
              34.1169
            ],
            [
              -118.2989,
              34.1199
            ],
            [
              -118.30189999999999,
              34.1199
            ],
            [
              -118.30189999999999,
              34.1169
            ]
          ]
        ]
      }
    }
  ]
}