{
  "type": "FeatureCollection",
  "name": "Devonshire Division (LAPD DIV-17) - FususONE 3D Layer",
  "crs": {
    "type": "name",
    "properties": {
      "name": "urn:ogc:def:crs:OGC:1.3:CRS84"
    }
  },
  "metadata": {
    "divisionId": "DIV-17",
    "divisionName": "Devonshire Division",
    "bureau": "Valley Bureau",
    "code": "DEVONSHIRE",
    "station": {
      "name": "Devonshire Community Police Station",
      "address": "10250 Reseda Blvd, Northridge, CA 91324",
      "phone": "(818) 832-0633",
      "lat": 34.2562,
      "lng": -118.5362
    },
    "center": [
      -118.54,
      34.26
    ],
    "fususOneCompatible": true,
    "optimization": "FususONE RTCC Compliant (Height Filtered + Low Polygon Vertex Bloat)"
  },
  "features": [
    {
      "type": "Feature",
      "properties": {
        "layerType": "BOUNDARY",
        "id": "DEVONSHIRE_BOUNDARY",
        "name": "Devonshire Division Boundary",
        "bureau": "Valley Bureau",
        "division": "Devonshire Division",
        "strokeColor": "#00f3ff",
        "strokeWidth": 3,
        "fillColor": "#00f3ff",
        "fillOpacity": 0.08
      },
      "geometry": {
        "type": "Polygon",
        "coordinates": [
          [
            [
              -118.61,
              34.225
            ],
            [
              -118.61,
              34.31
            ],
            [
              -118.485,
              34.31
            ],
            [
              -118.485,
              34.225
            ],
            [
              -118.61,
              34.225
            ]
          ]
        ]
      }
    },
    {
      "type": "Feature",
      "properties": {
        "layerType": "STATION",
        "id": "DEVONSHIRE_STATION",
        "name": "Devonshire Community Police Station",
        "address": "10250 Reseda Blvd, Northridge, CA 91324",
        "phone": "(818) 832-0633",
        "division": "Devonshire Division",
        "bureau": "Valley Bureau",
        "icon": "police-station",
        "markerColor": "#3b82f6"
      },
      "geometry": {
        "type": "Point",
        "coordinates": [
          -118.5362,
          34.2562
        ]
      }
    },
    {
      "type": "Feature",
      "properties": {
        "layerType": "BUILDING_3D",
        "id": "DEVONSHIRE_LM_1",
        "name": "CSUN University Student Union",
        "height": 35,
        "min_height": 0,
        "render_height": 35,
        "render_min_height": 0,
        "division": "Devonshire Division",
        "bureau": "Valley Bureau",
        "extrusionColor": "#1e293b"
      },
      "geometry": {
        "type": "Polygon",
        "coordinates": [
          [
            [
              -118.529,
              34.2385
            ],
            [
              -118.52600000000001,
              34.2385
            ],
            [
              -118.52600000000001,
              34.2415
            ],
            [
              -118.529,
              34.2415
            ],
            [
              -118.529,
              34.2385
            ]
          ]
        ]
      }
    },
    {
      "type": "Feature",
      "properties": {
        "layerType": "BUILDING_3D",
        "id": "DEVONSHIRE_LM_2",
        "name": "Northridge Fashion Center Tower",
        "height": 42,
        "min_height": 0,
        "render_height": 42,
        "render_min_height": 0,
        "division": "Devonshire Division",
        "bureau": "Valley Bureau",
        "extrusionColor": "#1e293b"
      },
      "geometry": {
        "type": "Polygon",
        "coordinates": [
          [
            [
              -118.55499999999999,
              34.237
            ],
            [
              -118.552,
              34.237
            ],
            [
              -118.552,
              34.24
            ],
            [
              -118.55499999999999,
              34.24
            ],
            [
              -118.55499999999999,
              34.237
            ]
          ]
        ]
      }
    }
  ]
}