{
  "type": "FeatureCollection",
  "name": "Rampart Division (LAPD DIV-02) - FususONE 3D Layer",
  "crs": {
    "type": "name",
    "properties": {
      "name": "urn:ogc:def:crs:OGC:1.3:CRS84"
    }
  },
  "metadata": {
    "divisionId": "DIV-02",
    "divisionName": "Rampart Division",
    "bureau": "Central Bureau",
    "code": "RAMPART",
    "station": {
      "name": "Rampart Community Police Station",
      "address": "1401 W 6th St, Los Angeles, CA 90017",
      "phone": "(213) 484-3400",
      "lat": 34.0561,
      "lng": -118.2687
    },
    "center": [
      -118.272,
      34.057
    ],
    "fususOneCompatible": true,
    "optimization": "FususONE RTCC Compliant (Height Filtered + Low Polygon Vertex Bloat)"
  },
  "features": [
    {
      "type": "Feature",
      "properties": {
        "layerType": "BOUNDARY",
        "id": "RAMPART_BOUNDARY",
        "name": "Rampart Division Boundary",
        "bureau": "Central Bureau",
        "division": "Rampart Division",
        "strokeColor": "#00f3ff",
        "strokeWidth": 3,
        "fillColor": "#00f3ff",
        "fillOpacity": 0.08
      },
      "geometry": {
        "type": "Polygon",
        "coordinates": [
          [
            [
              -118.29,
              34.045
            ],
            [
              -118.29,
              34.075
            ],
            [
              -118.255,
              34.075
            ],
            [
              -118.255,
              34.045
            ],
            [
              -118.29,
              34.045
            ]
          ]
        ]
      }
    },
    {
      "type": "Feature",
      "properties": {
        "layerType": "STATION",
        "id": "RAMPART_STATION",
        "name": "Rampart Community Police Station",
        "address": "1401 W 6th St, Los Angeles, CA 90017",
        "phone": "(213) 484-3400",
        "division": "Rampart Division",
        "bureau": "Central Bureau",
        "icon": "police-station",
        "markerColor": "#3b82f6"
      },
      "geometry": {
        "type": "Point",
        "coordinates": [
          -118.2687,
          34.0561
        ]
      }
    },
    {
      "type": "Feature",
      "properties": {
        "layerType": "BUILDING_3D",
        "id": "RAMPART_LM_1",
        "name": "MacArthur Park Center",
        "height": 18,
        "min_height": 0,
        "render_height": 18,
        "render_min_height": 0,
        "division": "Rampart Division",
        "bureau": "Central Bureau",
        "extrusionColor": "#1e293b"
      },
      "geometry": {
        "type": "Polygon",
        "coordinates": [
          [
            [
              -118.27999999999999,
              34.057
            ],
            [
              -118.277,
              34.057
            ],
            [
              -118.277,
              34.06
            ],
            [
              -118.27999999999999,
              34.06
            ],
            [
              -118.27999999999999,
              34.057
            ]
          ]
        ]
      }
    },
    {
      "type": "Feature",
      "properties": {
        "layerType": "BUILDING_3D",
        "id": "RAMPART_LM_2",
        "name": "Good Samaritan Hospital",
        "height": 55,
        "min_height": 0,
        "render_height": 55,
        "render_min_height": 0,
        "division": "Rampart Division",
        "bureau": "Central Bureau",
        "extrusionColor": "#1e293b"
      },
      "geometry": {
        "type": "Polygon",
        "coordinates": [
          [
            [
              -118.26499999999999,
              34.053
            ],
            [
              -118.262,
              34.053
            ],
            [
              -118.262,
              34.056
            ],
            [
              -118.26499999999999,
              34.056
            ],
            [
              -118.26499999999999,
              34.053
            ]
          ]
        ]
      }
    },
    {
      "type": "Feature",
      "properties": {
        "layerType": "BUILDING_3D",
        "id": "RAMPART_LM_3",
        "name": "Echo Park Lake Pavilion",
        "height": 15,
        "min_height": 0,
        "render_height": 15,
        "render_min_height": 0,
        "division": "Rampart Division",
        "bureau": "Central Bureau",
        "extrusionColor": "#1e293b"
      },
      "geometry": {
        "type": "Polygon",
        "coordinates": [
          [
            [
              -118.26209999999999,
              34.0707
            ],
            [
              -118.2591,
              34.0707
            ],
            [
              -118.2591,
              34.0737
            ],
            [
              -118.26209999999999,
              34.0737
            ],
            [
              -118.26209999999999,
              34.0707
            ]
          ]
        ]
      }
    }
  ]
}