{
  "type": "FeatureCollection",
  "name": "Hollenbeck Division (LAPD DIV-04) - FususONE 3D Layer",
  "crs": {
    "type": "name",
    "properties": {
      "name": "urn:ogc:def:crs:OGC:1.3:CRS84"
    }
  },
  "metadata": {
    "divisionId": "DIV-04",
    "divisionName": "Hollenbeck Division",
    "bureau": "Central Bureau",
    "code": "HOLLENBECK",
    "station": {
      "name": "Hollenbeck Community Police Station",
      "address": "2111 E 1st St, Los Angeles, CA 90033",
      "phone": "(323) 342-4100",
      "lat": 34.0416,
      "lng": -118.2162
    },
    "center": [
      -118.21,
      34.045
    ],
    "fususOneCompatible": true,
    "optimization": "FususONE RTCC Compliant (Height Filtered + Low Polygon Vertex Bloat)"
  },
  "features": [
    {
      "type": "Feature",
      "properties": {
        "layerType": "BOUNDARY",
        "id": "HOLLENBECK_BOUNDARY",
        "name": "Hollenbeck Division Boundary",
        "bureau": "Central Bureau",
        "division": "Hollenbeck Division",
        "strokeColor": "#00f3ff",
        "strokeWidth": 3,
        "fillColor": "#00f3ff",
        "fillOpacity": 0.08
      },
      "geometry": {
        "type": "Polygon",
        "coordinates": [
          [
            [
              -118.235,
              34.025
            ],
            [
              -118.235,
              34.07
            ],
            [
              -118.175,
              34.07
            ],
            [
              -118.175,
              34.025
            ],
            [
              -118.235,
              34.025
            ]
          ]
        ]
      }
    },
    {
      "type": "Feature",
      "properties": {
        "layerType": "STATION",
        "id": "HOLLENBECK_STATION",
        "name": "Hollenbeck Community Police Station",
        "address": "2111 E 1st St, Los Angeles, CA 90033",
        "phone": "(323) 342-4100",
        "division": "Hollenbeck Division",
        "bureau": "Central Bureau",
        "icon": "police-station",
        "markerColor": "#3b82f6"
      },
      "geometry": {
        "type": "Point",
        "coordinates": [
          -118.2162,
          34.0416
        ]
      }
    },
    {
      "type": "Feature",
      "properties": {
        "layerType": "BUILDING_3D",
        "id": "HOLLENBECK_LM_1",
        "name": "Keck Hospital of USC",
        "height": 60,
        "min_height": 0,
        "render_height": 60,
        "render_min_height": 0,
        "division": "Hollenbeck Division",
        "bureau": "Central Bureau",
        "extrusionColor": "#1e293b"
      },
      "geometry": {
        "type": "Polygon",
        "coordinates": [
          [
            [
              -118.20299999999999,
              34.0607
            ],
            [
              -118.2,
              34.0607
            ],
            [
              -118.2,
              34.0637
            ],
            [
              -118.20299999999999,
              34.0637
            ],
            [
              -118.20299999999999,
              34.0607
            ]
          ]
        ]
      }
    },
    {
      "type": "Feature",
      "properties": {
        "layerType": "BUILDING_3D",
        "id": "HOLLENBECK_LM_2",
        "name": "Sears Building Boyle Heights",
        "height": 75,
        "min_height": 0,
        "render_height": 75,
        "render_min_height": 0,
        "division": "Hollenbeck Division",
        "bureau": "Central Bureau",
        "extrusionColor": "#1e293b"
      },
      "geometry": {
        "type": "Polygon",
        "coordinates": [
          [
            [
              -118.225,
              34.023
            ],
            [
              -118.22200000000001,
              34.023
            ],
            [
              -118.22200000000001,
              34.026
            ],
            [
              -118.225,
              34.026
            ],
            [
              -118.225,
              34.023
            ]
          ]
        ]
      }
    }
  ]
}